[{"OBJECT_NAME":"STARLINK-36200","OBJECT_ID":"2025-298AC","EPOCH":"2026-03-09T22:00:01.999584","MEAN_MOTION":14.98359117,"ECCENTRICITY":0.00021382,"INCLINATION":70.0008,"RA_OF_ASC_NODE":14.0348,"ARG_OF_PERICENTER":265.8327,"MEAN_ANOMALY":236.4744,"EPHEMERIS_TYPE":0,"CLASSIFICATION_TYPE":"U","NORAD_CAT_ID":67101,"ELEMENT_SET_NO":999,"REV_AT_EPOCH":590,"BSTAR":-0.0019755868,"MEAN_MOTION_DOT":-0.00023603,"MEAN_MOTION_DDOT":0},{"OBJECT_NAME":"NOAA 17 DEB","OBJECT_ID":"2002-032AW","EPOCH":"2026-03-09T06:42:02.833344","MEAN_MOTION":15.0155296,"ECCENTRICITY":0.0036655,"INCLINATION":98.9692,"RA_OF_ASC_NODE":191.508,"ARG_OF_PERICENTER":264.8759,"MEAN_ANOMALY":94.8277,"EPHEMERIS_TYPE":0,"CLASSIFICATION_TYPE":"U","NORAD_CAT_ID":48713,"ELEMENT_SET_NO":999,"REV_AT_EPOCH":26502,"BSTAR":0.0031489084,"MEAN_MOTION_DOT":0.00041514,"MEAN_MOTION_DDOT":0}]
